{
  "norad_id": 62686,
  "name": "FOSSASAT-2E18 (TAT-A)",
  "history": [
    {
      "epoch": "2026-04-13T04:36:36.472320Z",
      "apogee_km": 507.6861922474927,
      "perigee_km": 499.76296737342636,
      "latitude_deg": 1.4844016530338934e-05,
      "longitude_deg": -87.83537043552118,
      "height_km": 510.7334912288653,
      "semi_major_axis_km": 6881.861579810459,
      "eccentricity": 0.00057566,
      "inclination_deg": 97.3984,
      "raan_deg": 182.703,
      "arg_perigee_deg": 188.7689,
      "mean_anomaly_deg": 171.3447,
      "mean_motion_rev_day": 15.20701108
    },
    {
      "epoch": "2026-04-14T18:30:41.763744Z",
      "apogee_km": 507.78426952386235,
      "perigee_km": 499.63478686517465,
      "latitude_deg": 7.858520166575022e-07,
      "longitude_deg": 63.6365273631572,
      "height_km": 510.8721257083051,
      "semi_major_axis_km": 6881.846528194518,
      "eccentricity": 0.0005921,
      "inclination_deg": 97.3985,
      "raan_deg": 184.2535,
      "arg_perigee_deg": 182.8295,
      "mean_anomaly_deg": 177.2908,
      "mean_motion_rev_day": 15.20706097
    },
    {
      "epoch": "2026-04-15T18:11:59.851104Z",
      "apogee_km": 507.84580352276316,
      "perigee_km": 499.5559416214637,
      "latitude_deg": -3.4988938914139915e-05,
      "longitude_deg": 68.30732356804961,
      "height_km": 510.93800731287644,
      "semi_major_axis_km": 6881.837872572113,
      "eccentricity": 0.0006023,
      "inclination_deg": 97.3983,
      "raan_deg": 185.2225,
      "arg_perigee_deg": 179.5163,
      "mean_anomaly_deg": 180.6079,
      "mean_motion_rev_day": 15.20708966
    },
    {
      "epoch": "2026-04-16T11:34:17.027328Z",
      "apogee_km": 507.89072457653765,
      "perigee_km": 499.496267737326,
      "latitude_deg": 9.392059048830034e-06,
      "longitude_deg": 167.7329320306284,
      "height_km": 510.97794221595495,
      "semi_major_axis_km": 6881.830496156932,
      "eccentricity": 0.0006099,
      "inclination_deg": 97.3982,
      "raan_deg": 185.9331,
      "arg_perigee_deg": 177.2645,
      "mean_anomaly_deg": 182.8625,
      "mean_motion_rev_day": 15.20711411
    },
    {
      "epoch": "2026-04-17T22:18:51.063552Z",
      "apogee_km": 507.95322333793047,
      "perigee_km": 499.39720384901284,
      "latitude_deg": 2.6281993233819838e-05,
      "longitude_deg": 6.585878708491947,
      "height_km": 511.0092880223565,
      "semi_major_axis_km": 6881.812213593471,
      "eccentricity": 0.00062164,
      "inclination_deg": 97.3984,
      "raan_deg": 187.3547,
      "arg_perigee_deg": 172.649,
      "mean_anomaly_deg": 187.4838,
      "mean_motion_rev_day": 15.20717471
    },
    {
      "epoch": "2026-04-18T04:37:51.788064Z",
      "apogee_km": 507.9627737033652,
      "perigee_km": 499.38418403282776,
      "latitude_deg": -1.4485373339441852e-05,
      "longitude_deg": -88.16805929458033,
      "height_km": 511.0102880698793,
      "semi_major_axis_km": 6881.810478868097,
      "eccentricity": 0.00062328,
      "inclination_deg": 97.3984,
      "raan_deg": 187.6132,
      "arg_perigee_deg": 171.8262,
      "mean_anomaly_deg": 188.3076,
      "mean_motion_rev_day": 15.20718046
    },
    {
      "epoch": "2026-04-19T18:31:55.474176Z",
      "apogee_km": 508.0556042174394,
      "perigee_km": 499.25104167825884,
      "latitude_deg": 5.90475882207262e-05,
      "longitude_deg": 63.31063168889344,
      "height_km": 511.027478951309,
      "semi_major_axis_km": 6881.790322947849,
      "eccentricity": 0.0006397,
      "inclination_deg": 97.3984,
      "raan_deg": 189.1638,
      "arg_perigee_deg": 166.6898,
      "mean_anomaly_deg": 193.4508,
      "mean_motion_rev_day": 15.20724727
    },
    {
      "epoch": "2026-04-20T11:54:12.051648Z",
      "apogee_km": 508.0953822104175,
      "perigee_km": 499.1973739382347,
      "latitude_deg": -2.6611256774477552e-05,
      "longitude_deg": 162.73875579576222,
      "height_km": 511.02222404980944,
      "semi_major_axis_km": 6881.783378074326,
      "eccentricity": 0.00064649,
      "inclination_deg": 97.3984,
      "raan_deg": 189.8744,
      "arg_perigee_deg": 164.4494,
      "mean_anomaly_deg": 195.6941,
      "mean_motion_rev_day": 15.20727029
    },
    {
      "epoch": "2026-04-21T11:35:28.873248Z",
      "apogee_km": 508.1473211338189,
      "perigee_km": 499.11293724661755,
      "latitude_deg": -1.0062087517251436e-05,
      "longitude_deg": 167.41502944115405,
      "height_km": 510.9953234742531,
      "semi_major_axis_km": 6881.767129190218,
      "eccentricity": 0.0006564,
      "inclination_deg": 97.3984,
      "raan_deg": 190.8436,
      "arg_perigee_deg": 161.1985,
      "mean_anomaly_deg": 198.9494,
      "mean_motion_rev_day": 15.20732415
    },
    {
      "epoch": "2026-04-22T17:35:45.926880Z",
      "apogee_km": 508.2170450785943,
      "perigee_km": 499.0188913880529,
      "latitude_deg": -5.104161095016006e-06,
      "longitude_deg": 77.33911809820505,
      "height_km": 510.9494458155301,
      "semi_major_axis_km": 6881.754968233323,
      "eccentricity": 0.0006683,
      "inclination_deg": 97.3983,
      "raan_deg": 192.071,
      "arg_perigee_deg": 157.3146,
      "mean_anomaly_deg": 202.8386,
      "mean_motion_rev_day": 15.20736446
    },
    {
      "epoch": "2026-04-23T04:39:01.556928Z",
      "apogee_km": 508.22881615563256,
      "perigee_km": 498.9903466399692,
      "latitude_deg": -3.141780373681191e-05,
      "longitude_deg": -88.47779037768193,
      "height_km": 510.9153356209343,
      "semi_major_axis_km": 6881.746581397801,
      "eccentricity": 0.00067123,
      "inclination_deg": 97.3981,
      "raan_deg": 192.5232,
      "arg_perigee_deg": 155.9378,
      "mean_anomaly_deg": 204.2172,
      "mean_motion_rev_day": 15.20739226
    },
    {
      "epoch": "2026-04-24T16:58:18.185088Z",
      "apogee_km": 508.33831447600824,
      "perigee_km": 498.83327894918875,
      "latitude_deg": -4.1333705209767066e-05,
      "longitude_deg": 86.69746263667243,
      "height_km": 510.8457061444454,
      "semi_major_axis_km": 6881.722796712598,
      "eccentricity": 0.0006906,
      "inclination_deg": 97.3977,
      "raan_deg": 194.0094,
      "arg_perigee_deg": 151.4108,
      "mean_anomaly_deg": 208.7507,
      "mean_motion_rev_day": 15.2074711
    },
    {
      "epoch": "2026-04-25T18:14:18.892896Z",
      "apogee_km": 508.3718616656006,
      "perigee_km": 498.75812398162543,
      "latitude_deg": 1.354340564274314e-05,
      "longitude_deg": 67.69043284011425,
      "height_km": 510.7388145094697,
      "semi_major_axis_km": 6881.701992823613,
      "eccentricity": 0.0006985,
      "inclination_deg": 97.3977,
      "raan_deg": 195.043,
      "arg_perigee_deg": 148.2542,
      "mean_anomaly_deg": 211.9116,
      "mean_motion_rev_day": 15.20754006
    },
    {
      "epoch": "2026-04-26T16:20:49.177536Z",
      "apogee_km": 508.3882327466026,
      "perigee_km": 498.69910163442546,
      "latitude_deg": -1.4106000499399364e-05,
      "longitude_deg": 96.0607905403799,
      "height_km": 510.6153892764832,
      "semi_major_axis_km": 6881.680667190514,
      "eccentricity": 0.00070398,
      "inclination_deg": 97.3978,
      "raan_deg": 195.9475,
      "arg_perigee_deg": 145.3697,
      "mean_anomaly_deg": 214.7998,
      "mean_motion_rev_day": 15.20761075
    },
    {
      "epoch": "2026-04-27T17:36:49.099968Z",
      "apogee_km": 508.42983484812885,
      "perigee_km": 498.6220887949412,
      "latitude_deg": 8.146268080518682e-05,
      "longitude_deg": 77.05703793717477,
      "height_km": 510.48543657449085,
      "semi_major_axis_km": 6881.662961821535,
      "eccentricity": 0.0007126,
      "inclination_deg": 97.3978,
      "raan_deg": 196.9811,
      "arg_perigee_deg": 142.2001,
      "mean_anomaly_deg": 217.9737,
      "mean_motion_rev_day": 15.20766944
    },
    {
      "epoch": "2026-04-28T17:18:03.682080Z",
      "apogee_km": 508.4639794480072,
      "perigee_km": 498.54890757459543,
      "latitude_deg": -3.2595719024808466e-05,
      "longitude_deg": 81.74248830391825,
      "height_km": 510.3419671104573,
      "semi_major_axis_km": 6881.643443511301,
      "eccentricity": 0.0007204,
      "inclination_deg": 97.3978,
      "raan_deg": 197.9501,
      "arg_perigee_deg": 139.1781,
      "mean_anomaly_deg": 220.9995,
      "mean_motion_rev_day": 15.20773414
    },
    {
      "epoch": "2026-04-29T04:21:18.369504Z",
      "apogee_km": 508.47707401659136,
      "perigee_km": 498.52003553238865,
      "latitude_deg": 5.188125627887743e-06,
      "longitude_deg": -84.07038885856164,
      "height_km": 510.2734367377338,
      "semi_major_axis_km": 6881.63555477449,
      "eccentricity": 0.00072345,
      "inclination_deg": 97.398,
      "raan_deg": 198.4024,
      "arg_perigee_deg": 137.8544,
      "mean_anomaly_deg": 222.3249,
      "mean_motion_rev_day": 15.20776029
    },
    {
      "epoch": "2026-04-30T04:02:32.442720Z",
      "apogee_km": 508.5003136829919,
      "perigee_km": 498.46003422619196,
      "latitude_deg": -2.4098006331633587e-05,
      "longitude_deg": -79.38282383218088,
      "height_km": 510.1219004060464,
      "semi_major_axis_km": 6881.617173954592,
      "eccentricity": 0.0007295,
      "inclination_deg": 97.3979,
      "raan_deg": 199.3714,
      "arg_perigee_deg": 135.1454,
      "mean_anomaly_deg": 225.0372,
      "mean_motion_rev_day": 15.20782122
    },
    {
      "epoch": "2026-05-02T04:59:44.322432Z",
      "apogee_km": 508.52631569749065,
      "perigee_km": 498.34846717255914,
      "latitude_deg": 2.35010155193314e-05,
      "longitude_deg": -93.69017156517349,
      "height_km": 509.7463299818405,
      "semi_major_axis_km": 6881.574391435025,
      "eccentricity": 0.0007395,
      "inclination_deg": 97.3976,
      "raan_deg": 201.374,
      "arg_perigee_deg": 129.3595,
      "mean_anomaly_deg": 230.8297,
      "mean_motion_rev_day": 15.20796304
    }
  ]
}